     2.11           N: GPS NAV DATA                         RINEX VERSION / TYPE
teqc  2019Feb25                         20211222 00:18:07UTCPGM / RUN BY / DATE
Linux 2.6.32-573.12.1.x86_64|x86_64|gcc -static|Linux 64|=+ COMMENT
    1.5832D-08 -7.4506D-09 -5.9605D-08  1.1921D-07          ION ALPHA
    1.2902D+05 -2.1299D+05  6.5536D+04  3.2768D+05          ION BETA
   -1.862645149231D-09-4.440892098501D-15   319488     2189 DELTA-UTC: A0,A1,T,W
                                                            END OF HEADER
11 21 12 21  6  0  0.0 1.098215579987D-05-3.637978807092D-12 0.000000000000D+00
    4.700000000000D+01-7.965625000000D+01 4.678766317969D-09-1.868879702707D+00
   -4.049390554428D-06 3.351486520842D-04 1.065433025360D-06 5.153750568390D+03
    1.944000000000D+05-3.166496753693D-08-8.637465361331D-01-2.421438694000D-08
    9.614941037573D-01 3.579062500000D+02 2.744479917325D+00-8.397492646418D-09
   -2.117945363783D-10 1.000000000000D+00 2.189000000000D+03 0.000000000000D+00
    4.000000000000D+00 6.300000000000D+01-8.847564458847D-09 3.030000000000D+02
    1.872180000000D+05 4.000000000000D+00
24 21 12 21  6  0  0.0 2.755871973932D-04 1.477928890381D-12 0.000000000000D+00
    2.400000000000D+01-9.406250000000D+00 5.300935090938D-09 2.449607011690D+00
   -6.128102540970D-07 1.218448765576D-02 5.565583705902D-06 5.153692913055D+03
    1.944000000000D+05-5.029141902924D-08 2.145454399747D+00-2.197921276093D-07
    9.342187203139D-01 2.585000000000D+02 7.925628515040D-01-8.174626220280D-09
   -1.778645516297D-10 1.000000000000D+00 2.189000000000D+03 0.000000000000D+00
    2.000000000000D+00 0.000000000000D+00 2.328306436539D-09 2.400000000000D+01
    1.872180000000D+05 4.000000000000D+00
 6 21 12 21  6  0  0.0 1.484248787165D-04 1.023181539495D-11 0.000000000000D+00
    8.300000000000D+01-7.300000000000D+01 4.208746739767D-09 2.523425275729D+00
   -3.585591912270D-06 2.541766152717D-03 9.313225746155D-07 5.153636785507D+03
    1.944000000000D+05 7.078051567078D-08-9.171011904772D-01 1.490116119385D-08
    9.857701847593D-01 3.737812500000D+02-1.025688692874D+00-8.143196339671D-09
   -2.135803250493D-10 1.000000000000D+00 2.189000000000D+03 0.000000000000D+00
    2.000000000000D+00 0.000000000000D+00 4.190951585770D-09 8.300000000000D+01
    1.872180000000D+05 4.000000000000D+00
13 21 12 21  6  0  0.0 2.327305264771D-04 5.798028723802D-12 0.000000000000D+00
    3.800000000000D+01 3.343750000000D+00 4.407683597714D-09-2.472567064754D+00
    2.291053533554D-07 5.774692283012D-03 7.186084985733D-06 5.153670652390D+03
    1.944000000000D+05 5.029141902924D-08 1.306841463307D+00-2.980232238770D-08
    9.679943549532D-01 2.451250000000D+02 9.768512720850D-01-7.696392014191D-09
    4.846630453041D-10 1.000000000000D+00 2.189000000000D+03 0.000000000000D+00
    2.000000000000D+00 0.000000000000D+00-1.117587089539D-08 3.800000000000D+01
    1.872180000000D+05 4.000000000000D+00
15 21 12 21  6  0  0.0-9.758630767465D-05 2.842170943040D-12 0.000000000000D+00
    4.200000000000D+01-5.312500000000D+00 5.128427905322D-09-2.852448968178D+00
   -3.017485141754D-07 1.392020459753D-02 8.163973689079D-06 5.153713113785D+03
    1.944000000000D+05 1.899898052216D-07 1.050243388087D+00-1.303851604462D-07
    9.294489139523D-01 2.040625000000D+02 1.064890580327D+00-7.940687904382D-09
    5.564517498775D-10 1.000000000000D+00 2.189000000000D+03 0.000000000000D+00
    2.000000000000D+00 0.000000000000D+00-1.071020960808D-08 4.200000000000D+01
    1.872180000000D+05 4.000000000000D+00
 7 21 12 21  6  0  0.0 2.932720817626D-04 4.320099833421D-12 0.000000000000D+00
    4.000000000000D+01-1.146875000000D+01 5.051281834735D-09 1.479100574773D+00
   -6.072223186493D-07 1.537688646931D-02 6.353482604027D-06 5.153702442169D+03
    1.944000000000D+05-3.091990947723D-07 2.227246091043D+00 6.705522537231D-08
    9.508213702809D-01 2.563750000000D+02-2.298392614627D+00-8.253200921803D-09
   -4.028739241732D-10 1.000000000000D+00 2.189000000000D+03 0.000000000000D+00
    2.000000000000D+00 0.000000000000D+00-1.117587089539D-08 4.000000000000D+01
    1.872180000000D+05 4.000000000000D+00
 5 21 12 21  5 59 44.0-6.512831896544D-05-1.250555214938D-12 0.000000000000D+00
    3.300000000000D+01-1.208750000000D+02 4.191246010791D-09-1.513380588456D+00
   -6.219372153282D-06 5.933980341069D-03 9.046867489815D-06 5.153643157959D+03
    1.943840000000D+05 1.490116119385D-07 8.684252129388D-02 4.470348358154D-08
    9.592435564359D-01 2.035937500000D+02 1.015203122211D+00-7.774609557980D-09
    1.178620522847D-11 1.000000000000D+00 2.189000000000D+03 0.000000000000D+00
    2.000000000000D+00 0.000000000000D+00-1.117587089539D-08 3.300000000000D+01
    1.872180000000D+05 4.000000000000D+00
 2 21 12 21  6  0  0.0-6.463313475251D-04-1.136868377216D-12 0.000000000000D+00
    9.300000000000D+01-5.218750000000D+01 4.506616290086D-09 2.307208300875D+00
   -2.816319465637D-06 2.062145271339D-02-4.228204488754D-07 5.153664098740D+03
    1.944000000000D+05 2.272427082062D-07-9.969542446774D-01-1.117587089539D-07
    9.647202652942D-01 3.840312500000D+02-1.469074632489D+00-8.064978795882D-09
   -2.700112470522D-10 1.000000000000D+00 2.189000000000D+03 0.000000000000D+00
    2.000000000000D+00 0.000000000000D+00-1.769512891769D-08 9.300000000000D+01
    1.872180000000D+05 4.000000000000D+00
29 21 12 21  6  0  0.0-4.567955620587D-04-5.002220859751D-12 0.000000000000D+00
    4.900000000000D+01 1.067187500000D+02 4.161959076587D-09-1.831178963771D+00
    5.602836608887D-06 1.749639515765D-03 3.863126039505D-06 5.153775352478D+03
    1.944000000000D+05-5.215406417847D-08-1.894079960262D+00 0.000000000000D+00
    9.822311620991D-01 3.201562500000D+02 2.325221420383D+00-7.986046936624D-09
    2.567964108870D-10 1.000000000000D+00 2.189000000000D+03 0.000000000000D+00
    2.000000000000D+00 0.000000000000D+00-1.024454832077D-08 4.900000000000D+01
    1.872180000000D+05 4.000000000000D+00
11 21 12 21  6 14 40.0 1.097843050957D-05-3.637978807092D-12 0.000000000000D+00
    4.800000000000D+01-8.081250000000D+01 4.691266838666D-09-1.740947516675D+00
   -4.082918167114D-06 3.351790364832D-04 1.054257154465D-06 5.153750293732D+03
    1.952800000000D+05-2.048909664154D-08-8.637539604423D-01-2.793967723846D-08
    9.614939165038D-01 3.583125000000D+02 2.744897637490D+00-8.402135696963D-09
   -2.067943280995D-10 1.000000000000D+00 2.189000000000D+03 0.000000000000D+00
    2.000000000000D+00 6.300000000000D+01-8.847564458847D-09 3.040000000000D+02
    1.881180000000D+05 4.000000000000D+00
18 21 12 21  6  0  0.0 2.757771871984D-04-6.707523425575D-12 0.000000000000D+00
    2.030000000000D+02-6.337500000000D+01 4.544475009911D-09 2.328023005057D+00
   -3.246590495110D-06 2.087819622830D-03 1.333653926849D-06 5.153634450912D+03
    1.944000000000D+05-7.450580596924D-09-9.001829247121D-01 7.450580596924D-08
    9.701676119238D-01 3.607187500000D+02 3.095486825623D+00-8.265344284766D-09
   -1.360770967287D-10 1.000000000000D+00 2.189000000000D+03 0.000000000000D+00
    2.000000000000D+00 0.000000000000D+00-8.381903171539D-09 7.150000000000D+02
    1.883280000000D+05 4.000000000000D+00
14 21 12 21  6  0  0.0-5.854666233063D-05-6.025402399246D-12 0.000000000000D+00
    1.230000000000D+02 7.584375000000D+01 4.336966366343D-09 8.155567374745D-01
    3.898516297340D-06 1.257807016373D-03 1.046992838383D-05 5.153650644302D+03
    1.944000000000D+05 3.725290298462D-09-2.974468396285D+00-7.450580596924D-09
    9.549042283483D-01 1.748437500000D+02 3.067457018252D+00-7.768537876499D-09
   -3.246563803842D-10 1.000000000000D+00 2.189000000000D+03 0.000000000000D+00
    2.000000000000D+00 0.000000000000D+00-7.916241884232D-09 3.790000000000D+02
    1.894020000000D+05 4.000000000000D+00
23 21 12 21  6  0  0.0 1.960713416338D-05-4.092726157978D-12 0.000000000000D+00
    2.360000000000D+02-1.069375000000D+02 4.156958868308D-09 1.531467621899D+00
   -5.491077899933D-06 1.930573838763D-03 8.752569556236D-06 5.153699798584D+03
    1.944000000000D+05 4.284083843231D-08 9.910926786454D-02 1.862645149231D-09
    9.671327225370D-01 2.139375000000D+02 2.862292244658D+00-7.776038188917D-09
   -1.785788670980D-11 1.000000000000D+00 2.189000000000D+03 0.000000000000D+00
    2.000000000000D+00 0.000000000000D+00-8.381903171539D-09 1.004000000000D+03
    1.919820000000D+05 4.000000000000D+00
12 21 12 21  6  0  0.0-1.438860781491D-04-5.570655048359D-12 0.000000000000D+00
    4.400000000000D+01 7.065625000000D+01 3.975522739337D-09 8.035641519924D-01
    3.583729267120D-06 8.478647796437D-03 1.078099012375D-05 5.153640867233D+03
    1.944000000000D+05-1.266598701477D-07-2.944080223067D+00-3.725290298462D-09
    9.714835696415D-01 1.768437500000D+02 1.233266252867D+00-7.746394096979D-09
   -3.603721538038D-10 1.000000000000D+00 2.189000000000D+03 0.000000000000D+00
    2.000000000000D+00 0.000000000000D+00-1.257285475731D-08 4.400000000000D+01
    1.940460000000D+05 4.000000000000D+00
20 21 12 21  8  0  0.0 5.175466649234D-04-2.273736754432D-13 0.000000000000D+00
    8.200000000000D+01-1.353125000000D+02 4.726268296617D-09-2.002164038900D+00
   -6.889924407005D-06 5.391566897742D-03 8.480623364449D-06 5.153718162537D+03
    2.016000000000D+05-2.235174179077D-08-2.614096947059D-02-1.396983861923D-07
    9.414087329953D-01 2.024375000000D+02 3.072715815222D+00-8.111766459061D-09
   -1.000041655749D-11 1.000000000000D+00 2.189000000000D+03 0.000000000000D+00
    2.000000000000D+00 0.000000000000D+00-8.381903171539D-09 8.200000000000D+01
    1.944180000000D+05 4.000000000000D+00
